HIMAWARI-8              
1 40267U 14060A   24179.00743917 -.00000272  00000+0  00000+0 0  9994
2 40267   0.0455 207.5208 0000809 273.4241 297.9863  1.00269546 35532
